{
  "norad_id": 53723,
  "name": "STARLINK-4705",
  "history": [
    {
      "epoch": "2026-03-28T14:25:16.362048",
      "apogee_km": 540.5621951373696,
      "perigee_km": 538.9129738364272,
      "latitude_deg": -35.03826016613715,
      "longitude_deg": -30.015153279993683,
      "semi_major_axis_km": 6917.874584486898,
      "eccentricity": 0.0001192,
      "inclination_deg": 53.2176,
      "raan_deg": 168.8712,
      "arg_perigee_deg": 92.2233,
      "mean_anomaly_deg": 267.8896,
      "mean_motion_rev_day": 15.08841899
    }
  ]
}