{"fetched_at":"2026-03-29T02:12:04Z","count":15717,"tles":[{"name":"STARLINK-4705","line1":"1 53723U 22107Z   26087.60088382  .00000871  00000+0  72804-4 0  9990","line2":"2 53723  53.2176 168.8712 0001192  92.2233 267.8896 15.08841899197414","category":"Starlink"}]}